STARLINK-30307          
1 57747U 23131R   25322.59540083 -.00000119  00000+0  62813-5 0  9994
2 57747  43.0013  55.3615 0002123 248.2297 111.8320 15.02532918123211
STARLINK-30356          
1 57748U 23131S   25322.98650337 -.00001111  00000+0 -67152-4 0  9996
2 57748  43.0012  53.1406 0001243 270.3404  89.7296 15.02540811123275
STARLINK-30366          
1 57749U 23131T   25322.70057570  .00006373  00000+0  48590-3 0  9994
2 57749  43.0029  54.4320 0001311 266.1977  93.8715 15.02576943123230
STARLINK-30357          
1 57750U 23131U   25322.97650789  .00000849  00000+0  77905-4 0  9991
2 57750  43.0042  53.0631 0001461 271.2804  88.7871 15.02536454123272
STARLINK-30370          
1 57751U 23131V   25322.94917423 -.00000412  00000+0 -15434-4 0  9997
2 57751  43.0043  40.9797 0001110 266.9400  93.1316 15.02534487123410
STARLINK-30368          
1 57752U 23131W   25323.13610209 -.00000543  00000+0 -25120-4 0  9990
2 57752  43.0042  52.5062 0001132 278.2241  81.8473 15.02536710123292
STARLINK-30343          
1 57753U 23131X   25322.97983708 -.00001200  00000+0 -73706-4 0  9993
2 57753  43.0044  53.0873 0001606 269.7379  90.3279 15.02546300123277
STARLINK-30397          
1 57771U 23134A   25322.71678574 -.00002356  00000+0 -15937-3 0  9994
2 57771  43.0029  80.8810 0001515 263.0792  96.9878 15.02542380122779
STARLINK-30354          
1 57772U 23134B   25322.72998672 -.00001014  00000+0 -59972-4 0  9998
2 57772  43.0039  80.1191 0001495 285.2635  74.8042 15.02539841122782
STARLINK-30383          
1 57773U 23134C   25323.04584783  .00000151  00000+0  26261-4 0  9993
2 57773  43.0033  79.0496 0001326 266.1180  93.9511 15.02530939122825
STARLINK-30384          
1 57774U 23134D   25323.03918535 -.00002612  00000+0 -17829-3 0  9994
2 57774  43.0030  79.0013 0001727 271.6727  88.3917 15.02541381122822
STARLINK-30305          
1 57775U 23134E   25323.04251743 -.00000255  00000+0 -38214-5 0  9991
2 57775  43.0029  79.0243 0001421 275.7195  84.3485 15.02534527122821
STARLINK-30360          
1 57776U 23134F   25323.03585676  .00001181  00000+0  10254-3 0  9995
2 57776  43.0051  78.9713 0001354 270.4846  89.5841 15.02528106122826
STARLINK-30355          
1 57777U 23134G   25323.02920815 -.00003067  00000+0 -21217-3 0  9991
2 57777  43.0035  78.8975 0002437 264.5752  95.4812 15.02514891122810
STARLINK-30385          
1 57778U 23134H   25322.98297441 -.00003964  00000+0 -27842-3 0  9994
2 57778  43.0037  66.5854 0001563 273.6975  86.3688 15.02553274122807
STARLINK-30359          
1 57779U 23134J   25322.97630616  .00000397  00000+0  44425-4 0  9991
2 57779  43.0027  66.5688 0001485 277.0199  83.0475 15.02540798122963
