[{"OBJECT_NAME":"STARLINK-30307","OBJECT_ID":"2023-131R","EPOCH":"2025-11-18T14:17:22.631712","MEAN_MOTION":15.02532918,"ECCENTRICITY":0.00021238,"INCLINATION":43.0013,"RA_OF_ASC_NODE":55.3615,"ARG_OF_PERICENTER":248.2297,"MEAN_ANOMALY":111.832,"EPHEMERIS_TYPE":0,"CLASSIFICATION_TYPE":"U","NORAD_CAT_ID":57747,"ELEMENT_SET_NO":999,"REV_AT_EPOCH":12321,"BSTAR":6.281258e-6,"MEAN_MOTION_DOT":-1.19e-6,"MEAN_MOTION_DDOT":0},{"OBJECT_NAME":"STARLINK-30356","OBJECT_ID":"2023-131S","EPOCH":"2025-11-18T23:40:33.891168","MEAN_MOTION":15.02540811,"ECCENTRICITY":0.00012437,"INCLINATION":43.0012,"RA_OF_ASC_NODE":53.1406,"ARG_OF_PERICENTER":270.3404,"MEAN_ANOMALY":89.7296,"EPHEMERIS_TYPE":0,"CLASSIFICATION_TYPE":"U","NORAD_CAT_ID":57748,"ELEMENT_SET_NO":999,"REV_AT_EPOCH":12327,"BSTAR":-6.7151709e-5,"MEAN_MOTION_DOT":-1.111e-5,"MEAN_MOTION_DDOT":0},{"OBJECT_NAME":"STARLINK-30366","OBJECT_ID":"2023-131T","EPOCH":"2025-11-18T16:48:49.740480","MEAN_MOTION":15.02576943,"ECCENTRICITY":0.00013111,"INCLINATION":43.0029,"RA_OF_ASC_NODE":54.432,"ARG_OF_PERICENTER":266.1977,"MEAN_ANOMALY":93.8715,"EPHEMERIS_TYPE":0,"CLASSIFICATION_TYPE":"U","NORAD_CAT_ID":57749,"ELEMENT_SET_NO":999,"REV_AT_EPOCH":12323,"BSTAR":0.00048590226,"MEAN_MOTION_DOT":6.373e-5,"MEAN_MOTION_DDOT":0},{"OBJECT_NAME":"STARLINK-30357","OBJECT_ID":"2023-131U","EPOCH":"2025-11-18T23:26:10.281696","MEAN_MOTION":15.02536454,"ECCENTRICITY":0.00014611,"INCLINATION":43.0042,"RA_OF_ASC_NODE":53.0631,"ARG_OF_PERICENTER":271.2804,"MEAN_ANOMALY":88.7871,"EPHEMERIS_TYPE":0,"CLASSIFICATION_TYPE":"U","NORAD_CAT_ID":57750,"ELEMENT_SET_NO":999,"REV_AT_EPOCH":12327,"BSTAR":7.7905361e-5,"MEAN_MOTION_DOT":8.49e-6,"MEAN_MOTION_DDOT":0},{"OBJECT_NAME":"STARLINK-30370","OBJECT_ID":"2023-131V","EPOCH":"2025-11-18T22:46:48.653472","MEAN_MOTION":15.02534487,"ECCENTRICITY":0.000111,"INCLINATION":43.0043,"RA_OF_ASC_NODE":40.9797,"ARG_OF_PERICENTER":266.94,"MEAN_ANOMALY":93.1316,"EPHEMERIS_TYPE":0,"CLASSIFICATION_TYPE":"U","NORAD_CAT_ID":57751,"ELEMENT_SET_NO":999,"REV_AT_EPOCH":12341,"BSTAR":-1.5433682e-5,"MEAN_MOTION_DOT":-4.12e-6,"MEAN_MOTION_DDOT":0},{"OBJECT_NAME":"STARLINK-30368","OBJECT_ID":"2023-131W","EPOCH":"2025-11-19T03:15:59.220576","MEAN_MOTION":15.0253671,"ECCENTRICITY":0.00011326,"INCLINATION":43.0042,"RA_OF_ASC_NODE":52.5062,"ARG_OF_PERICENTER":278.2241,"MEAN_ANOMALY":81.8473,"EPHEMERIS_TYPE":0,"CLASSIFICATION_TYPE":"U","NORAD_CAT_ID":57752,"ELEMENT_SET_NO":999,"REV_AT_EPOCH":12329,"BSTAR":-2.5120358e-5,"MEAN_MOTION_DOT":-5.43e-6,"MEAN_MOTION_DDOT":0},{"OBJECT_NAME":"STARLINK-30343","OBJECT_ID":"2023-131X","EPOCH":"2025-11-18T23:30:57.923712","MEAN_MOTION":15.025463,"ECCENTRICITY":0.00016061,"INCLINATION":43.0044,"RA_OF_ASC_NODE":53.0873,"ARG_OF_PERICENTER":269.7379,"MEAN_ANOMALY":90.3279,"EPHEMERIS_TYPE":0,"CLASSIFICATION_TYPE":"U","NORAD_CAT_ID":57753,"ELEMENT_SET_NO":999,"REV_AT_EPOCH":12327,"BSTAR":-7.3706343e-5,"MEAN_MOTION_DOT":-1.2e-5,"MEAN_MOTION_DDOT":0},{"OBJECT_NAME":"STARLINK-30397","OBJECT_ID":"2023-134A","EPOCH":"2025-11-18T17:12:10.287936","MEAN_MOTION":15.0254238,"ECCENTRICITY":0.00015158,"INCLINATION":43.0029,"RA_OF_ASC_NODE":80.881,"ARG_OF_PERICENTER":263.0792,"MEAN_ANOMALY":96.9878,"EPHEMERIS_TYPE":0,"CLASSIFICATION_TYPE":"U","NORAD_CAT_ID":57771,"ELEMENT_SET_NO":999,"REV_AT_EPOCH":12277,"BSTAR":-0.00015937371,"MEAN_MOTION_DOT":-2.356e-5,"MEAN_MOTION_DDOT":0},{"OBJECT_NAME":"STARLINK-30354","OBJECT_ID":"2023-134B","EPOCH":"2025-11-18T17:31:10.852608","MEAN_MOTION":15.02539841,"ECCENTRICITY":0.00014951,"INCLINATION":43.0039,"RA_OF_ASC_NODE":80.1191,"ARG_OF_PERICENTER":285.2635,"MEAN_ANOMALY":74.8042,"EPHEMERIS_TYPE":0,"CLASSIFICATION_TYPE":"U","NORAD_CAT_ID":57772,"ELEMENT_SET_NO":999,"REV_AT_EPOCH":12278,"BSTAR":-5.9972246e-5,"MEAN_MOTION_DOT":-1.014e-5,"MEAN_MOTION_DDOT":0},{"OBJECT_NAME":"STARLINK-30383","OBJECT_ID":"2023-134C","EPOCH":"2025-11-19T01:06:01.252512","MEAN_MOTION":15.02530939,"ECCENTRICITY":0.0001326,"INCLINATION":43.0033,"RA_OF_ASC_NODE":79.0496,"ARG_OF_PERICENTER":266.118,"MEAN_ANOMALY":93.9511,"EPHEMERIS_TYPE":0,"CLASSIFICATION_TYPE":"U","NORAD_CAT_ID":57773,"ELEMENT_SET_NO":999,"REV_AT_EPOCH":12282,"BSTAR":2.6261109e-5,"MEAN_MOTION_DOT":1.51e-6,"MEAN_MOTION_DDOT":0},{"OBJECT_NAME":"STARLINK-30384","OBJECT_ID":"2023-134D","EPOCH":"2025-11-19T00:56:25.614240","MEAN_MOTION":15.02541381,"ECCENTRICITY":0.00017272,"INCLINATION":43.003,"RA_OF_ASC_NODE":79.0013,"ARG_OF_PERICENTER":271.6727,"MEAN_ANOMALY":88.3917,"EPHEMERIS_TYPE":0,"CLASSIFICATION_TYPE":"U","NORAD_CAT_ID":57774,"ELEMENT_SET_NO":999,"REV_AT_EPOCH":12282,"BSTAR":-0.00017828667,"MEAN_MOTION_DOT":-2.612e-5,"MEAN_MOTION_DDOT":0},{"OBJECT_NAME":"STARLINK-30305","OBJECT_ID":"2023-134E","EPOCH":"2025-11-19T01:01:13.505952","MEAN_MOTION":15.02534527,"ECCENTRICITY":0.00014211,"INCLINATION":43.0029,"RA_OF_ASC_NODE":79.0243,"ARG_OF_PERICENTER":275.7195,"MEAN_ANOMALY":84.3485,"EPHEMERIS_TYPE":0,"CLASSIFICATION_TYPE":"U","NORAD_CAT_ID":57775,"ELEMENT_SET_NO":999,"REV_AT_EPOCH":12282,"BSTAR":-3.821386e-6,"MEAN_MOTION_DOT":-2.55e-6,"MEAN_MOTION_DDOT":0},{"OBJECT_NAME":"STARLINK-30360","OBJECT_ID":"2023-134F","EPOCH":"2025-11-19T00:51:38.024064","MEAN_MOTION":15.02528106,"ECCENTRICITY":0.00013547,"INCLINATION":43.0051,"RA_OF_ASC_NODE":78.9713,"ARG_OF_PERICENTER":270.4846,"MEAN_ANOMALY":89.5841,"EPHEMERIS_TYPE":0,"CLASSIFICATION_TYPE":"U","NORAD_CAT_ID":57776,"ELEMENT_SET_NO":999,"REV_AT_EPOCH":12282,"BSTAR":0.0001025434,"MEAN_MOTION_DOT":1.181e-5,"MEAN_MOTION_DDOT":0},{"OBJECT_NAME":"STARLINK-30355","OBJECT_ID":"2023-134G","EPOCH":"2025-11-19T00:42:03.584160","MEAN_MOTION":15.02514891,"ECCENTRICITY":0.00024379,"INCLINATION":43.0035,"RA_OF_ASC_NODE":78.8975,"ARG_OF_PERICENTER":264.5752,"MEAN_ANOMALY":95.4812,"EPHEMERIS_TYPE":0,"CLASSIFICATION_TYPE":"U","NORAD_CAT_ID":57777,"ELEMENT_SET_NO":999,"REV_AT_EPOCH":12281,"BSTAR":-0.00021216624,"MEAN_MOTION_DOT":-3.067e-5,"MEAN_MOTION_DDOT":0},{"OBJECT_NAME":"STARLINK-30385","OBJECT_ID":"2023-134H","EPOCH":"2025-11-18T23:35:28.989024","MEAN_MOTION":15.02553274,"ECCENTRICITY":0.00015639,"INCLINATION":43.0037,"RA_OF_ASC_NODE":66.5854,"ARG_OF_PERICENTER":273.6975,"MEAN_ANOMALY":86.3688,"EPHEMERIS_TYPE":0,"CLASSIFICATION_TYPE":"U","NORAD_CAT_ID":57778,"ELEMENT_SET_NO":999,"REV_AT_EPOCH":12280,"BSTAR":-0.00027841997,"MEAN_MOTION_DOT":-3.964e-5,"MEAN_MOTION_DDOT":0},{"OBJECT_NAME":"STARLINK-30359","OBJECT_ID":"2023-134J","EPOCH":"2025-11-18T23:25:52.852224","MEAN_MOTION":15.02540798,"ECCENTRICITY":0.0001485,"INCLINATION":43.0027,"RA_OF_ASC_NODE":66.5688,"ARG_OF_PERICENTER":277.0199,"MEAN_ANOMALY":83.0475,"EPHEMERIS_TYPE":0,"CLASSIFICATION_TYPE":"U","NORAD_CAT_ID":57779,"ELEMENT_SET_NO":999,"REV_AT_EPOCH":12296,"BSTAR":4.4424748e-5,"MEAN_MOTION_DOT":3.97e-6,"MEAN_MOTION_DDOT":0}]
